{
  "type": "FeatureCollection",
  "features": [
    {
      "type": "Feature",
      "properties": {
        "norad_id": 37238,
        "name": "INTELSAT 17 (IS-17)",
        "group": "intelsat",
        "lat": 0.012235733426137393,
        "lon": 103.99351168561282,
        "alt_km": 35794.733417171126,
        "timestamp": "2025-12-04T21:36:15.542208+00:00",
        "meta_object_name": "INTELSAT 17 (IS-17)",
        "meta_object_id": "2010-065B",
        "meta_epoch": "2025-12-04T14:02:25.306368",
        "meta_mean_motion": 1.00271299,
        "meta_eccentricity": 0.00023911,
        "meta_inclination": 0.013,
        "meta_ra_of_asc_node": 289.3203,
        "meta_arg_of_pericenter": 321.9563,
        "meta_mean_anomaly": 98.9819,
        "meta_ephemeris_type": 0,
        "meta_classification_type": "U",
        "meta_norad_cat_id": 37238,
        "meta_element_set_no": 999,
        "meta_rev_at_epoch": 5129,
        "meta_bstar": 0,
        "meta_mean_motion_dot": 1.3e-07,
        "meta_mean_motion_ddot": 0,
        "tle_line1": "1 37238U 10065B   25338.58501512  .00000013  00000+0  00000+0 0  9995",
        "tle_line2": "2 37238   0.0130 289.3203 0002391 321.9563  98.9819  1.00271299 51292"
      },
      "geometry": {
        "type": "Point",
        "coordinates": [
          103.99351168561282,
          0.012235733426137393
        ]
      }
    },
    {
      "type": "Feature",
      "properties": {
        "norad_id": 37392,
        "name": "INTELSAT 28 (IS-28)",
        "group": "intelsat",
        "lat": -1.2609299669370815,
        "lon": 6.3571237948910895,
        "alt_km": 35791.706190066594,
        "timestamp": "2025-12-04T21:36:15.542220+00:00",
        "meta_object_name": "INTELSAT 28 (IS-28)",
        "meta_object_id": "2011-016A",
        "meta_epoch": "2025-12-04T10:09:06.715296",
        "meta_mean_motion": 1.00271009,
        "meta_eccentricity": 0.0004125,
        "meta_inclination": 1.3016,
        "meta_ra_of_asc_node": 85.1558,
        "meta_arg_of_pericenter": 173.9289,
        "meta_mean_anomaly": 294.9856,
        "meta_ephemeris_type": 0,
        "meta_classification_type": "U",
        "meta_norad_cat_id": 37392,
        "meta_element_set_no": 999,
        "meta_rev_at_epoch": 5133,
        "meta_bstar": 0,
        "meta_mean_motion_dot": -2.1e-06,
        "meta_mean_motion_ddot": 0,
        "tle_line1": "1 37392U 11016A   25338.42299439 -.00000210  00000+0  00000+0 0  9998",
        "tle_line2": "2 37392   1.3016  85.1558 0004125 173.9289 294.9856  1.00271009 51335"
      },
      "geometry": {
        "type": "Point",
        "coordinates": [
          6.3571237948910895,
          -1.2609299669370815
        ]
      }
    },
    {
      "type": "Feature",
      "properties": {
        "norad_id": 37834,
        "name": "INTELSAT 18 (IS-18)",
        "group": "intelsat",
        "lat": -0.036308369010879055,
        "lon": -142.00821147068353,
        "alt_km": 35779.42504182184,
        "timestamp": "2025-12-04T21:36:15.542232+00:00",
        "meta_object_name": "INTELSAT 18 (IS-18)",
        "meta_object_id": "2011-056A",
        "meta_epoch": "2025-12-04T12:42:38.679840",
        "meta_mean_motion": 1.00270623,
        "meta_eccentricity": 0.00021081,
        "meta_inclination": 0.0139,
        "meta_ra_of_asc_node": 294.6359,
        "meta_arg_of_pericenter": 322.2341,
        "meta_mean_anomaly": 187.3892,
        "meta_ephemeris_type": 0,
        "meta_classification_type": "U",
        "meta_norad_cat_id": 37834,
        "meta_element_set_no": 999,
        "meta_rev_at_epoch": 5186,
        "meta_bstar": 0,
        "meta_mean_motion_dot": 6.8e-07,
        "meta_mean_motion_ddot": 0,
        "tle_line1": "1 37834U 11056A   25338.52961435  .00000068  00000+0  00000+0 0  9996",
        "tle_line2": "2 37834   0.0139 294.6359 0002108 322.2341 187.3892  1.00270623 51865"
      },
      "geometry": {
        "type": "Point",
        "coordinates": [
          -142.00821147068353,
          -0.036308369010879055
        ]
      }
    },
    {
      "type": "Feature",
      "properties": {
        "norad_id": 38098,
        "name": "INTELSAT 22 (IS-22)",
        "group": "intelsat",
        "lat": 0.022402852283519185,
        "lon": 110.10771792077739,
        "alt_km": 35792.68297966527,
        "timestamp": "2025-12-04T21:36:15.542244+00:00",
        "meta_object_name": "INTELSAT 22 (IS-22)",
        "meta_object_id": "2012-011A",
        "meta_epoch": "2025-12-04T14:04:10.138944",
        "meta_mean_motion": 1.00270945,
        "meta_eccentricity": 0.00016886,
        "meta_inclination": 0.0066,
        "meta_ra_of_asc_node": 5.2141,
        "meta_arg_of_pericenter": 257.9644,
        "meta_mean_anomaly": 93.6265,
        "meta_ephemeris_type": 0,
        "meta_classification_type": "U",
        "meta_norad_cat_id": 38098,
        "meta_element_set_no": 999,
        "meta_rev_at_epoch": 523,
        "meta_bstar": 0,
        "meta_mean_motion_dot": -4.4e-07,
        "meta_mean_motion_ddot": 0,
        "tle_line1": "1 38098U 12011A   25338.58622846 -.00000044  00000+0  00000+0 0  9992",
        "tle_line2": "2 38098   0.0066   5.2141 0001688 257.9644  93.6265  1.00270945  5234"
      },
      "geometry": {
        "type": "Point",
        "coordinates": [
          110.10771792077739,
          0.022402852283519185
        ]
      }
    },
    {
      "type": "Feature",
      "properties": {
        "norad_id": 38356,
        "name": "INTELSAT 19 (IS-19)",
        "group": "intelsat",
        "lat": -0.031185427214056906,
        "lon": -156.01339045990892,
        "alt_km": 35778.221611911686,
        "timestamp": "2025-12-04T21:36:15.542256+00:00",
        "meta_object_name": "INTELSAT 19 (IS-19)",
        "meta_object_id": "2012-030A",
        "meta_epoch": "2025-12-04T12:50:38.628384",
        "meta_mean_motion": 1.00269832,
        "meta_eccentricity": 0.00034897,
        "meta_inclination": 0.0104,
        "meta_ra_of_asc_node": 327.051,
        "meta_arg_of_pericenter": 292.3695,
        "meta_mean_anomaly": 172.8577,
        "meta_ephemeris_type": 0,
        "meta_classification_type": "U",
        "meta_norad_cat_id": 38356,
        "meta_element_set_no": 999,
        "meta_rev_at_epoch": 4849,
        "meta_bstar": 0,
        "meta_mean_motion_dot": -4.2e-07,
        "meta_mean_motion_ddot": 0,
        "tle_line1": "1 38356U 12030A   25338.53516931 -.00000042  00000+0  00000+0 0  9990",
        "tle_line2": "2 38356   0.0104 327.0510 0003489 292.3695 172.8577  1.00269832 48493"
      },
      "geometry": {
        "type": "Point",
        "coordinates": [
          -156.01339045990892,
          -0.031185427214056906
        ]
      }
    },
    {
      "type": "Feature",
      "properties": {
        "norad_id": 38740,
        "name": "INTELSAT 20 (IS-20)",
        "group": "intelsat",
        "lat": 0.031041644990980395,
        "lon": 106.46256818194504,
        "alt_km": 35785.31303832536,
        "timestamp": "2025-12-04T21:36:15.542282+00:00",
        "meta_object_name": "INTELSAT 20 (IS-20)",
        "meta_object_id": "2012-043A",
        "meta_epoch": "2025-12-04T10:37:41.477088",
        "meta_mean_motion": 1.00270685,
        "meta_eccentricity": 0.00030015,
        "meta_inclination": 0.0143,
        "meta_ra_of_asc_node": 351.6199,
        "meta_arg_of_pericenter": 199.7467,
        "meta_mean_anomaly": 110.0587,
        "meta_ephemeris_type": 0,
        "meta_classification_type": "U",
        "meta_norad_cat_id": 38740,
        "meta_element_set_no": 999,
        "meta_rev_at_epoch": 4879,
        "meta_bstar": 0,
        "meta_mean_motion_dot": 0,
        "meta_mean_motion_ddot": 0,
        "tle_line1": "1 38740U 12043A   25338.44284117  .00000000  00000+0  00000+0 0  9992",
        "tle_line2": "2 38740   0.0143 351.6199 0003001 199.7467 110.0587  1.00270685 48792"
      },
      "geometry": {
        "type": "Point",
        "coordinates": [
          106.46256818194504,
          0.031041644990980395
        ]
      }
    },
    {
      "type": "Feature",
      "properties": {
        "norad_id": 38749,
        "name": "INTELSAT 21 (IS-21)",
        "group": "intelsat",
        "lat": 0.007037516658631305,
        "lon": -19.95992430098846,
        "alt_km": 35786.808053356704,
        "timestamp": "2025-12-04T21:36:15.542297+00:00",
        "meta_object_name": "INTELSAT 21 (IS-21)",
        "meta_object_id": "2012-045A",
        "meta_epoch": "2025-12-04T11:44:20.063040",
        "meta_mean_motion": 1.00272097,
        "meta_eccentricity": 0.00022636,
        "meta_inclination": 0.0173,
        "meta_ra_of_asc_node": 334.2609,
        "meta_arg_of_pericenter": 271.1043,
        "meta_mean_anomaly": 306.2818,
        "meta_ephemeris_type": 0,
        "meta_classification_type": "U",
        "meta_norad_cat_id": 38749,
        "meta_element_set_no": 999,
        "meta_rev_at_epoch": 4857,
        "meta_bstar": 0,
        "meta_mean_motion_dot": -2.7e-06,
        "meta_mean_motion_ddot": 0,
        "tle_line1": "1 38749U 12045A   25338.48912110 -.00000270  00000+0  00000+0 0  9998",
        "tle_line2": "2 38749   0.0173 334.2609 0002263 271.1043 306.2818  1.00272097 48572"
      },
      "geometry": {
        "type": "Point",
        "coordinates": [
          -19.95992430098846,
          0.007037516658631305
        ]
      }
    }
  ]
}